[{"OBJECT_NAME":"SJ-11-06","OBJECT_ID":"2014-014A","EPOCH":"2026-03-09T23:36:53.923680","MEAN_MOTION":14.61777646,"ECCENTRICITY":0.00126361,"INCLINATION":97.9599,"RA_OF_ASC_NODE":99.4808,"ARG_OF_PERICENTER":301.1982,"MEAN_ANOMALY":58.7981,"EPHEMERIS_TYPE":0,"CLASSIFICATION_TYPE":"U","NORAD_CAT_ID":39624,"ELEMENT_SET_NO":999,"REV_AT_EPOCH":63620,"BSTAR":0.00014245201,"MEAN_MOTION_DOT":6.66e-6,"MEAN_MOTION_DDOT":0},{"OBJECT_NAME":"FENGYUN 1C DEB","OBJECT_ID":"1999-025ANL","EPOCH":"2026-03-09T14:21:34.188768","MEAN_MOTION":14.62818089,"ECCENTRICITY":0.0005896,"INCLINATION":99.2453,"RA_OF_ASC_NODE":179.6698,"ARG_OF_PERICENTER":252.1309,"MEAN_ANOMALY":234.0173,"EPHEMERIS_TYPE":0,"CLASSIFICATION_TYPE":"U","NORAD_CAT_ID":30629,"ELEMENT_SET_NO":999,"REV_AT_EPOCH":99158,"BSTAR":0.003223,"MEAN_MOTION_DOT":0.00016439,"MEAN_MOTION_DDOT":0}]
